0 ATLAS CENTAUR 2 DEB
1 19106U 63047T   13282.34915079  .00009254  00000-0  18186-2 0  8053
2 19106 030.3913 312.3044 0220520 038.2899 323.3149 14.47146599352404
0 ATLAS CENTAUR 2 DEB
1 19106U 63047T   13283.45286827  .00007917  00000-0  15533-2 0  8066
2 19106 030.3911 305.8083 0220555 048.4981 313.4335 14.47159688352562
0 ATLAS CENTAUR 2 DEB
1 19106U 63047T   13286.28104485  .00005570  00000-0  10876-2 0  8089
2 19106 030.3903 289.1600 0220534 074.7256 287.7618 14.47188731352979
0 ATLAS CENTAUR 2 DEB
1 19106U 63047T   13288.14341850  .00010262  00000-0  20151-2 0  8097
2 19106 030.3902 278.1957 0220490 092.0078 270.5796 14.47213008353241
0 ATLAS CENTAUR 2 DEB
1 19106U 63047T   13289.17803650  .00008145  00000-0  15956-2 0  8108
2 19106 030.3901 272.1042 0220485 101.5763 260.9683 14.47227888353395
0 ATLAS CENTAUR 2 DEB
1 19106U 63047T   13290.28160412  .00007914  00000-0  15494-2 0  8115
2 19106 030.3904 265.6076 0220461 111.7809 250.6412 14.47238878353555
0 ATLAS CENTAUR 2 DEB
1 19106U 63047T   13292.14381738  .00005964  00000-0  11631-2 0  8121
2 19106 030.3908 254.6445 0220400 129.0631 232.9809 14.47263211353827
0 ATLAS CENTAUR 2 DEB
1 19106U 63047T   13293.17835096  .00006330  00000-0  12348-2 0  8131
2 19106 030.3908 248.5536 0220386 138.6578 223.0940 14.47275779353974
0 ATLAS CENTAUR 2 DEB
1 19106U 63047T   13295.17839853  .00008048  00000-0  15735-2 0  8140
2 19106 030.3905 236.7799 0220273 157.2054 203.8508 14.47298895354265
